{
  "type": "FeatureCollection",
  "features": [
    {
      "type": "Feature",
      "properties": {
        "norad_id": 67089,
        "name": "STARLINK-35763",
        "group": "last-30-days",
        "lat": 50.635974205410605,
        "lon": -122.19334318470477,
        "alt_km": 336.0824253749979,
        "timestamp": "2025-12-26T06:43:28.237014+00:00",
        "meta_object_name": "STARLINK-35763",
        "meta_object_id": "2025-298Q",
        "meta_epoch": "2025-12-25T22:00:01.999584",
        "meta_mean_motion": 15.78151717,
        "meta_eccentricity": 0.00035763,
        "meta_inclination": 69.9965,
        "meta_ra_of_asc_node": 212.4751,
        "meta_arg_of_pericenter": 277.7613,
        "meta_mean_anomaly": 234.0103,
        "meta_ephemeris_type": 0,
        "meta_classification_type": "U",
        "meta_norad_cat_id": 67089,
        "meta_element_set_no": 999,
        "meta_rev_at_epoch": 309,
        "meta_bstar": -0.011221506,
        "meta_mean_motion_dot": -0.01703235,
        "meta_mean_motion_ddot": 0,
        "tle_line1": "1 67089U 25298Q   25359.91668981 -.01703235  00000+0 -11222-1 0  9999",
        "tle_line2": "2 67089  69.9965 212.4751 0003576 277.7613 234.0103 15.78151717  3090"
      },
      "geometry": {
        "type": "Point",
        "coordinates": [
          -122.19334318470477,
          50.635974205410605
        ]
      }
    },
    {
      "type": "Feature",
      "properties": {
        "norad_id": 67090,
        "name": "STARLINK-36060",
        "group": "last-30-days",
        "lat": 52.19798526720117,
        "lon": -120.54975290635669,
        "alt_km": 335.8939091680286,
        "timestamp": "2025-12-26T06:43:28.237024+00:00",
        "meta_object_name": "STARLINK-36060",
        "meta_object_id": "2025-298R",
        "meta_epoch": "2025-12-25T22:00:01.999584",
        "meta_mean_motion": 15.7815509,
        "meta_eccentricity": 0.00035198,
        "meta_inclination": 69.9961,
        "meta_ra_of_asc_node": 212.4726,
        "meta_arg_of_pericenter": 277.1211,
        "meta_mean_anomaly": 236.5134,
        "meta_ephemeris_type": 0,
        "meta_classification_type": "U",
        "meta_norad_cat_id": 67090,
        "meta_element_set_no": 999,
        "meta_rev_at_epoch": 303,
        "meta_bstar": -0.011215646,
        "meta_mean_motion_dot": -0.01702621,
        "meta_mean_motion_ddot": 0,
        "tle_line1": "1 67090U 25298R   25359.91668981 -.01702621  00000+0 -11216-1 0  9992",
        "tle_line2": "2 67090  69.9961 212.4726 0003519 277.1211 236.5134 15.78155090  3038"
      },
      "geometry": {
        "type": "Point",
        "coordinates": [
          -120.54975290635669,
          52.19798526720117
        ]
      }
    },
    {
      "type": "Feature",
      "properties": {
        "norad_id": 67091,
        "name": "STARLINK-36097",
        "group": "last-30-days",
        "lat": 53.92426815157219,
        "lon": -118.56047149067031,
        "alt_km": 335.9229047251483,
        "timestamp": "2025-12-26T06:43:28.237044+00:00",
        "meta_object_name": "STARLINK-36097",
        "meta_object_id": "2025-298S",
        "meta_epoch": "2025-12-25T22:00:01.999584",
        "meta_mean_motion": 15.78147233,
        "meta_eccentricity": 0.00036759,
        "meta_inclination": 69.9964,
        "meta_ra_of_asc_node": 212.4702,
        "meta_arg_of_pericenter": 273.4651,
        "meta_mean_anomaly": 242.2796,
        "meta_ephemeris_type": 0,
        "meta_classification_type": "U",
        "meta_norad_cat_id": 67091,
        "meta_element_set_no": 999,
        "meta_rev_at_epoch": 309,
        "meta_bstar": -0.011229043,
        "meta_mean_motion_dot": -0.01704042,
        "meta_mean_motion_ddot": 0,
        "tle_line1": "1 67091U 25298S   25359.91668981 -.01704042  00000+0 -11229-1 0  9996",
        "tle_line2": "2 67091  69.9964 212.4702 0003675 273.4651 242.2796 15.78147233  3090"
      },
      "geometry": {
        "type": "Point",
        "coordinates": [
          -118.56047149067031,
          53.92426815157219
        ]
      }
    },
    {
      "type": "Feature",
      "properties": {
        "norad_id": 67092,
        "name": "STARLINK-35792",
        "group": "last-30-days",
        "lat": 55.43544340485576,
        "lon": -116.64093725501276,
        "alt_km": 335.61584289558414,
        "timestamp": "2025-12-26T06:43:28.237055+00:00",
        "meta_object_name": "STARLINK-35792",
        "meta_object_id": "2025-298T",
        "meta_epoch": "2025-12-25T22:00:01.999584",
        "meta_mean_motion": 15.78147913,
        "meta_eccentricity": 0.00035251,
        "meta_inclination": 69.9963,
        "meta_ra_of_asc_node": 212.4679,
        "meta_arg_of_pericenter": 275.9923,
        "meta_mean_anomaly": 241.6236,
        "meta_ephemeris_type": 0,
        "meta_classification_type": "U",
        "meta_norad_cat_id": 67092,
        "meta_element_set_no": 999,
        "meta_rev_at_epoch": 303,
        "meta_bstar": -0.011220465,
        "meta_mean_motion_dot": -0.01702786,
        "meta_mean_motion_ddot": 0,
        "tle_line1": "1 67092U 25298T   25359.91668981 -.01702786  00000+0 -11220-1 0  9991",
        "tle_line2": "2 67092  69.9963 212.4679 0003525 275.9923 241.6236 15.78147913  3037"
      },
      "geometry": {
        "type": "Point",
        "coordinates": [
          -116.64093725501276,
          55.43544340485576
        ]
      }
    },
    {
      "type": "Feature",
      "properties": {
        "norad_id": 67093,
        "name": "STARLINK-35784",
        "group": "last-30-days",
        "lat": 56.99010094288781,
        "lon": -114.45774396170862,
        "alt_km": 335.612929133551,
        "timestamp": "2025-12-26T06:43:28.237068+00:00",
        "meta_object_name": "STARLINK-35784",
        "meta_object_id": "2025-298U",
        "meta_epoch": "2025-12-25T22:00:01.999584",
        "meta_mean_motion": 15.78147362,
        "meta_eccentricity": 0.00036624,
        "meta_inclination": 69.9961,
        "meta_ra_of_asc_node": 212.4654,
        "meta_arg_of_pericenter": 273.2951,
        "meta_mean_anomaly": 246.2944,
        "meta_ephemeris_type": 0,
        "meta_classification_type": "U",
        "meta_norad_cat_id": 67093,
        "meta_element_set_no": 999,
        "meta_rev_at_epoch": 309,
        "meta_bstar": -0.011233836,
        "meta_mean_motion_dot": -0.01704682,
        "meta_mean_motion_ddot": 0,
        "tle_line1": "1 67093U 25298U   25359.91668981 -.01704682  00000+0 -11234-1 0  9994",
        "tle_line2": "2 67093  69.9961 212.4654 0003662 273.2951 246.2944 15.78147362  3094"
      },
      "geometry": {
        "type": "Point",
        "coordinates": [
          -114.45774396170862,
          56.99010094288781
        ]
      }
    },
    {
      "type": "Feature",
      "properties": {
        "norad_id": 67094,
        "name": "STARLINK-36202",
        "group": "last-30-days",
        "lat": 58.62194738435612,
        "lon": -111.88930355462813,
        "alt_km": 335.34839611118423,
        "timestamp": "2025-12-26T06:43:28.237082+00:00",
        "meta_object_name": "STARLINK-36202",
        "meta_object_id": "2025-298V",
        "meta_epoch": "2025-12-25T22:00:01.999584",
        "meta_mean_motion": 15.78134972,
        "meta_eccentricity": 0.00036096,
        "meta_inclination": 69.996,
        "meta_ra_of_asc_node": 212.4627,
        "meta_arg_of_pericenter": 277.9184,
        "meta_mean_anomaly": 243.8103,
        "meta_ephemeris_type": 0,
        "meta_classification_type": "U",
        "meta_norad_cat_id": 67094,
        "meta_element_set_no": 999,
        "meta_rev_at_epoch": 309,
        "meta_bstar": -0.011213159,
        "meta_mean_motion_dot": -0.01701005,
        "meta_mean_motion_ddot": 0,
        "tle_line1": "1 67094U 25298V   25359.91668981 -.01701005  00000+0 -11213-1 0  9998",
        "tle_line2": "2 67094  69.9960 212.4627 0003609 277.9184 243.8103 15.78134972  3097"
      },
      "geometry": {
        "type": "Point",
        "coordinates": [
          -111.88930355462813,
          58.62194738435612
        ]
      }
    },
    {
      "type": "Feature",
      "properties": {
        "norad_id": 67095,
        "name": "STARLINK-36227",
        "group": "last-30-days",
        "lat": 60.124441394434875,
        "lon": -109.21244771645928,
        "alt_km": 335.1960254942578,
        "timestamp": "2025-12-26T06:43:28.237092+00:00",
        "meta_object_name": "STARLINK-36227",
        "meta_object_id": "2025-298W",
        "meta_epoch": "2025-12-25T22:00:01.999584",
        "meta_mean_motion": 15.78134539,
        "meta_eccentricity": 0.00035166,
        "meta_inclination": 69.9958,
        "meta_ra_of_asc_node": 212.4601,
        "meta_arg_of_pericenter": 276.808,
        "meta_mean_anomaly": 246.9523,
        "meta_ephemeris_type": 0,
        "meta_classification_type": "U",
        "meta_norad_cat_id": 67095,
        "meta_element_set_no": 999,
        "meta_rev_at_epoch": 303,
        "meta_bstar": -0.011245813,
        "meta_mean_motion_dot": -0.01705273,
        "meta_mean_motion_ddot": 0,
        "tle_line1": "1 67095U 25298W   25359.91668981 -.01705273  00000+0 -11246-1 0  9996",
        "tle_line2": "2 67095  69.9958 212.4601 0003516 276.8080 246.9523 15.78134539  3030"
      },
      "geometry": {
        "type": "Point",
        "coordinates": [
          -109.21244771645928,
          60.124441394434875
        ]
      }
    }
  ]
}